GSAT0101 (GALILEO-PFM)  
1 37846U 11060A   25291.17538753 -.00000097  00000+0  00000+0 0  9999
2 37846  57.0659 348.3291 0001213 293.2779  66.7705  1.70475810 86994
GSAT0102 (GALILEO-FM2)  
1 37847U 11060B   25290.54717988 -.00000098  00000+0  00000+0 0  9990
2 37847  57.0677 348.3467 0003209 295.4792  84.4491  1.70475916 86992
GSAT0103 (GALILEO-FM3)  
1 38857U 12055A   25292.97516657  .00000050  00000+0  00000+0 0  9993
2 38857  55.6605 108.1424 0001583 276.7094  83.3124  1.70473548 80910
GSAT0201 (GALILEO 5)    
1 40128U 14050A   25293.02891527 -.00000069  00000+0  00000+0 0  9994
2 40128  49.1381 283.2505 1642820 170.2404 193.3914  1.85519627 73867
GSAT0202 (GALILEO 6)    
1 40129U 14050B   25292.20739736 -.00000067  00000+0  00000+0 0  9995
2 40129  49.1552 282.3666 1643429 170.9672 192.3990  1.85520331 76013
GSAT0203 (GALILEO 7)    
1 40544U 15017A   25292.12681210 -.00000096  00000+0  00000+0 0  9996
2 40544  56.8591 348.1707 0005854 256.2923 103.7059  1.70476306 65093
GSAT0204 (GALILEO 8)    
1 40545U 15017B   25290.62238198 -.00000098  00000+0  00000+0 0  9995
2 40545  56.8674 348.2294 0006170 246.8531 113.1415  1.70475680 28117
GSAT0205 (GALILEO 9)    
1 40889U 15045A   25292.15020313 -.00000034  00000+0  00000+0 0  9995
2 40889  55.0253 228.2650 0004610  25.8803 334.1173  1.70472997 62908
GSAT0206 (GALILEO 10)   
1 40890U 15045B   25292.95745163 -.00000029  00000+0  00000+0 0  9996
2 40890  55.0238 228.2378 0002638  10.1862 349.7969  1.70473041 62940
GSAT0209 (GALILEO 12)   
1 41174U 15079A   25293.12617875  .00000050  00000+0  00000+0 0  9990
2 41174  55.6791 107.8521 0002765  12.1493 347.8957  1.70474256 60685
GSAT0208 (GALILEO 11)   
1 41175U 15079B   25292.75971855  .00000051  00000+0  00000+0 0  9991
2 41175  55.6767 107.8592 0002413  24.4788 335.5729  1.70474069 61099
GSAT0211 (GALILEO 14)   
1 41549U 16030A   25292.29659051 -.00000033  00000+0  00000+0 0  9995
2 41549  55.1736 228.3202 0003500 344.0955  15.8684  1.70473027 58566
GSAT0210 (GALILEO 13)   
1 41550U 16030B   25292.55416330 -.00000032  00000+0  00000+0 0  9996
2 41550  55.1730 228.3113 0002824 248.9902 110.9556  1.70473535 58564
GSAT0207 (GALILEO 15)   
1 41859U 16069A   25291.07320203  .00000053  00000+0  00000+0 0  9991
2 41859  55.3469 107.7912 0002152 347.8022  12.2398  1.70474095 55275
GSAT0212 (GALILEO 16)   
1 41860U 16069B   25293.27324799  .00000048  00000+0  00000+0 0  9995
2 41860  55.3459 107.7259 0002929  42.1163 317.9436  1.70474391 55562
GSAT0213 (GALILEO 17)   
1 41861U 16069C   25288.94826400  .00000052  00000+0  00000+0 0  9995
2 41861  55.3474 107.8529 0001533 302.0294  58.0040  1.70474612 55351
GSAT0214 (GALILEO 18)   
1 41862U 16069D   25293.20026031  .00000049  00000+0  00000+0 0  9999
2 41862  55.3503 107.7283 0000725 333.5542  26.4799  1.70474412 55558
GSAT0215 (GALILEO 19)   
1 43055U 17079A   25292.51675783 -.00000032  00000+0  00000+0 0  9997
2 43055  55.1513 228.1293 0002295 288.7016  71.2496  1.70473781 48881
GSAT0216 (GALILEO 20)   
1 43056U 17079B   25292.22148928 -.00000033  00000+0  00000+0 0  9993
2 43056  55.1531 228.1373 0003758 291.9980  67.9370  1.70473931 48893
GSAT0217 (GALILEO 21)   
1 43057U 17079C   25293.02876400 -.00000028  00000+0  00000+0 0  9990
2 43057  55.1491 228.1132 0003409 310.7356  49.2131  1.70473886 48899
GSAT0218 (GALILEO 22)   
1 43058U 17079D   25292.07565587 -.00000034  00000+0  00000+0 0  9993
2 43058  55.1499 228.1371 0004158 286.8863  73.0426  1.70473873 48901
GSAT0221 (GALILEO 25)   
1 43564U 18060A   25291.97848901 -.00000095  00000+0  00000+0 0  9995
2 43564  57.2402 348.2985 0005912 269.2922  90.7035  1.70476226 45055
GSAT0222 (GALILEO 26)   
1 43565U 18060B   25293.37091653 -.00000092  00000+0  00000+0 0  9993
2 43565  57.2435 348.2638 0005889 247.2517 112.7523  1.70476039 45123
GSAT0219 (GALILEO 23)   
1 43566U 18060C   25293.59212670 -.00000092  00000+0  00000+0 0  9992
2 43566  57.2427 348.2595 0004748 272.8129  87.1994  1.70476203 45101
GSAT0220 (GALILEO 24)   
1 43567U 18060D   25292.63986126 -.00000094  00000+0  00000+0 0  9993
2 43567  57.2426 348.2850 0004992 270.8351  89.1726  1.70476187 45073
GSAT0223 (GALILEO 27)   
1 49809U 21116A   25291.91015902 -.00000095  00000+0  00000+0 0  9990
2 49809  57.2322 348.1956 0004468 228.9314 133.9597  1.70476351 24074
GSAT0224 (GALILEO 28)   
1 49810U 21116B   25293.49635550 -.00000092  00000+0  00000+0 0  9991
2 49810  57.2326 348.1516 0004067 235.5075 133.4461  1.70476376 24123
GSAT0225 (GALILEO 29)   
1 59598U 24079A   25292.04675763  .00000050  00000+0  00000+0 0  9999
2 59598  54.9662 107.8239 0002253 151.7837  39.8159  1.70474552  9205
GSAT0227 (GALILEO 30)   
1 59600U 24079C   25293.09122329  .00000048  00000+0  00000+0 0  9991
2 59600  54.9605 107.7942 0004007 105.5549 254.5282  1.70474507  9272
GSAT0232 (GALILEO 32)   
1 61182U 24167A   25290.42235578 -.00000039  00000+0  00000+0 0  9993
2 61182  55.2628 227.9747 0003642 233.3136 123.6268  1.70473347  6732
GSAT0226 (GALILEO 31)   
1 61183U 24167B   25286.11246465 -.00000011  00000+0  00000+0 0  9992
2 61183  55.2635 228.0983 0001593 229.7741 114.7326  1.70473280  6630
